[{"OBJECT_NAME":"STARLINK-3043","OBJECT_ID":"2021-082BB","EPOCH":"2026-03-09T21:55:52.298400","MEAN_MOTION":14.98316627,"ECCENTRICITY":0.00018785,"INCLINATION":69.9994,"RA_OF_ASC_NODE":253.8771,"ARG_OF_PERICENTER":271.8402,"MEAN_ANOMALY":88.2542,"EPHEMERIS_TYPE":0,"CLASSIFICATION_TYPE":"U","NORAD_CAT_ID":49179,"ELEMENT_SET_NO":999,"REV_AT_EPOCH":24699,"BSTAR":0.00024395893,"MEAN_MOTION_DOT":2.818e-5,"MEAN_MOTION_DDOT":0},{"OBJECT_NAME":"CZ-4B DEB","OBJECT_ID":"2020-067G","EPOCH":"2026-03-09T15:23:17.086272","MEAN_MOTION":14.97507509,"ECCENTRICITY":0.0035481,"INCLINATION":97.6356,"RA_OF_ASC_NODE":124.8214,"ARG_OF_PERICENTER":11.4219,"MEAN_ANOMALY":348.7801,"EPHEMERIS_TYPE":0,"CLASSIFICATION_TYPE":"U","NORAD_CAT_ID":46484,"ELEMENT_SET_NO":999,"REV_AT_EPOCH":29505,"BSTAR":0.00058118,"MEAN_MOTION_DOT":6.807e-5,"MEAN_MOTION_DDOT":0}]
